satname,norad_id,inclination_deg,eccentricity,mean_motion_rev_per_day,perigee_km,apogee_km,l1,l2
STARLINK-1255,45399,53.0427,0.0003207,15.48989269,417.50149821859486,421.86161904210076,1 45399U 20019AR  26054.05588503  .00081678  00000+0  14775-2 0  9998,2 45399  53.0427 173.0136 0003207 204.8132 155.2721 15.48989269328160
STARLINK-1260,45404,53.1617,0.0001023,15.30197358,474.5218592427509,475.9240566901508,1 45404U 20019AW  26054.78567887 -.00000371  00000+0 -41018-6 0  9994,2 45404  53.1617 193.8244 0001023  70.9313 289.1798 15.30197358327842
STARLINK-1263,45405,53.1597,0.0001043,15.3021727,474.4487055545824,475.878304039883,1 45405U 20019AX  26054.38219001  .00003134  00000+0  11782-3 0  9993,2 45405  53.1597 195.7209 0001043 117.6282 242.4825 15.30217270327780
STARLINK-1265,45406,53.1609,0.0001319,15.30209726,474.28207618267334,476.0899827978519,1 45406U 20019AY  26054.78883102  .00004870  00000+0  17639-3 0  9992,2 45406  53.1609 193.9131 0001319  79.9830 280.1319 15.30209726327845
STARLINK-1278,45408,53.047,0.0002574,15.52677331,407.16577013069946,410.6597433454681,1 45408U 20019BA  26054.12063253  .00092989  00000+0  14726-2 0  9990,2 45408  53.0470 200.7617 0002574 137.3188 222.8021 15.52677331327698
STARLINK-1296,45412,53.1609,0.0001131,15.30196877,474.44927897658,475.9995093239377,1 45412U 20019BE  26054.12936725  .00001104  00000+0  49408-4 0  9994,2 45412  53.1609 196.8802 0001131  79.2673 280.8455 15.30196877327748
STARLINK-1298,45413,53.0379,0.0007295,15.88858381,300.6067654012659,310.3581662018714,1 45413U 20019BF  26054.91667824  .00199583  00000+0  67495-3 0  9997,2 45413  53.0379 124.2628 0007295 320.6860 326.5059 15.88858381  5997
STARLINK-1309,45414,53.0689,0.0002312,15.51918165,409.5562875174446,412.6956427125142,1 45414U 20019BG  26054.66598740  .00078295  00000+0  12777-2 0  9998,2 45414  53.0689 191.2110 0002312 355.4797   4.6191 15.51918165327852
STARLINK-1316,45415,53.1608,0.0001358,15.30200206,474.28376921302515,476.14513946802435,1 45415U 20019BH  26054.76250670  .00000069  00000+0  14474-4 0  9999,2 45415  53.1608 193.9881 0001358  86.1507 273.9649 15.30200206327862
STARLINK-1318,45416,53.0275,0.0008989,16.08546563,244.8746718799439,256.79223496110353,1 45416U 20019BJ  26054.65509384  .01016723  60163-3  11583-2 0  9998,2 45416  53.0275 110.3748 0008989   9.5978 350.5225 16.08546563329000
STARLINK-1286,45417,53.0492,0.0001897,15.49709664,416.28556844993,418.8638614745869,1 45417U 20019BK  26054.68132793  .00039713  00000+0  70836-3 0  9998,2 45417  53.0492 197.9719 0001897  69.1264 290.9947 15.49709664328051
STARLINK-1308,45419,53.0535,7.29e-05,15.49047168,419.0166201355096,420.0077173843147,1 45419U 20019BM  26054.91667824  .00096008  00000+0  17288-2 0  9995,2 45419  53.0535 218.1555 0000729  81.0957 119.4964 15.49047168  5870
STARLINK-1329,45531,53.0499,0.0003027,15.53065538,405.7276100734607,409.835805259082,1 45531U 20025A   26053.98379231  .00087107  00000+0  13617-2 0  9997,2 45531  53.0499 152.4058 0003027 222.5076 137.5699 15.53065538323167
STARLINK-1338,45532,53.0502,0.0004296,15.51917447,408.21139089613644,414.0447274349708,1 45532U 20025B   26054.67554175  .00081304  00000+0  13258-2 0  9991,2 45532  53.0502 152.3060 0004296 285.2792  74.7742 15.51917447323226
STARLINK-1350,45535,53.071,0.0001348,15.3568044,457.97851465611984,459.82177987102295,1 45535U 20025E   26054.53998508  .00013909  00000+0  40526-3 0  9996,2 45535  53.0710  99.5756 0001348  55.8711 304.2418 15.35680440323987
STARLINK-1362,45538,53.1583,0.0001052,15.29859195,475.5117609116187,476.9539203260838,1 45538U 20025H   26054.67846855  .00056808  00000+0  19358-2 0  9994,2 45538  53.1583 166.0738 0001052  98.2386 261.8734 15.29859195323033
STARLINK-1368,45540,53.1603,0.0001192,15.30196747,474.4078615837234,476.0417030326262,1 45540U 20025K   26054.68814369  .00000705  00000+0  35919-4 0  9991,2 45540  53.1603 166.3650 0001192  84.1156 275.9980 15.30196747323026
STARLINK-1371,45542,53.051,0.0002451,15.44603647,430.87362836647026,434.2122236662035,1 45542U 20025M   26054.71773348  .00070594  00000+0  14889-2 0  9992,2 45542  53.0510 156.0390 0002451 230.1961 129.8829 15.44603647323179
STARLINK-1372,45543,53.1616,0.0001233,15.30203122,474.36073054512417,476.05076486670987,1 45543U 20025N   26054.59959923  .00001806  00000+0  73092-4 0  9997,2 45543  53.1616 166.4686 0001233  88.8585 271.2557 15.30203122322110
STARLINK-1373,45544,53.0498,0.0004437,15.48434107,418.28936878035347,424.32319474859105,1 45544U 20025P   26054.91667824  .00010912  00000+0  21022-3 0  9993,2 45544  53.0498 155.0005 0004437 300.1750 190.4645 15.48434107  5947
STARLINK-1294,45551,53.0282,0.0006645,16.02847214,262.12281230235567,270.9535856417897,1 45551U 20025W   26054.42872830  .01455194  12515-2  23868-2 0  9994,2 45551  53.0282  48.0266 0006645  66.4193 293.7535 16.02847214324668
STARLINK-1327,45555,53.048,0.0004767,15.51016129,410.52033514946106,416.9957278725051,1 45555U 20025AA  26054.48962334  .00080510  00000+0  13559-2 0  9997,2 45555  53.0480 135.0218 0004767 358.2008   1.8983 15.51016129323442
STARLINK-1356,45564,53.052,0.0005013,15.43097406,433.55779601051563,440.39062651092627,1 45564U 20025AK  26054.61859070  .00028212  00000+0  63493-3 0  9998,2 45564  53.0520 140.7479 0005013 344.0799  16.0048 15.43097406323374
STARLINK-1357,45565,53.0535,0.00027,15.52392469,407.9102802838552,411.5757354881134,1 45565U 20025AL  26054.43605956  .00082256  00000+0  13187-2 0  9993,2 45565  53.0535 106.8030 0002700  12.2556 347.8518 15.52392469323848
STARLINK-1361,45567,53.0508,0.0006957,15.45011126,426.60802389756554,436.08273768219624,1 45567U 20025AN  26054.72872207  .00065820  00000+0  13697-2 0  9996,2 45567  53.0508 140.5254 0006957 339.8987  20.1744 15.45011126323399
STARLINK-1363,45568,53.0439,0.0008332,15.7360361,343.002985794893,354.2124331787809,1 45568U 20025AP  26054.91667824  .00075967  00000+0  53050-3 0  9996,2 45568  53.0439 106.3345 0008332   5.5391 290.8323 15.73603610  6011
STARLINK-1366,45569,53.0437,0.0008226,15.72779636,345.4215644658507,356.4922697783004,1 45569U 20025AQ  26054.17429665  .00088141  00000+0  63596-3 0  9998,2 45569  53.0437 110.7239 0008226   1.7855 358.3190 15.72779636323752
STARLINK-1376,45570,53.1608,0.000133,15.2935645,476.8230843307456,478.64674626021406,1 45570U 20025AR  26054.53819474  .00000386  00000+0  25705-4 0  9997,2 45570  53.1608 143.4529 0001330  96.5434 263.5718 15.29356450323338
STARLINK-1320,45572,53.0498,0.0007957,15.66193658,364.4386571025243,375.17733677064916,1 45572U 20025AT  26054.91667824  .00168399  00000+0  15752-2 0  9999,2 45572  53.0498  53.5710 0007957   6.4146  47.0090 15.66193658  5986
STARLINK-1321,45573,53.0495,0.0003195,15.4584083,426.73372847707924,431.0834306024053,1 45573U 20025AU  26054.48083644  .00112224  00000+0  22518-2 0  9998,2 45573  53.0495 126.3624 0003195 346.5355  13.5565 15.45840830323264
STARLINK-1331,45578,53.0541,0.000276,15.45810434,427.11904347189557,430.8765818884949,1 45578U 20025AZ  26054.81117719  .00070690  00000+0  14308-2 0  9999,2 45578  53.0541 131.4502 0002760  38.2944 321.8258 15.45810434323530
STARLINK-1333,45580,53.1594,0.0001326,15.30215727,474.259363576487,476.0768600921456,1 45580U 20025BB  26054.65066888  .00008593  00000+0  30178-3 0  9991,2 45580  53.1594 143.0174 0001326  81.9628 278.1524 15.30215727323355
STARLINK-1335,45581,53.0757,9.19e-05,15.12625256,527.562817992899,528.8322022758612,1 45581U 20025BC  26054.91667824  .00042917  00000+0  24307-2 0  9992,2 45581  53.0757 138.3977 0000919 129.2108 190.5902 15.12625256  5783
STARLINK-1337,45582,53.0533,0.0003014,15.555288,398.5727923848308,402.65902463808015,1 45582U 20025BD  26054.69064749  .00085854  00000+0  12271-2 0  9999,2 45582  53.0533 129.6232 0003014  38.6632 321.4593 15.55528800323538
STARLINK-1347,45586,53.0469,0.0005847,15.51111789,409.50772487758877,417.44984037379163,1 45586U 20025BH  26054.51982446  .00077278  00000+0  12976-2 0  9990,2 45586  53.0469  97.7479 0005847 353.1340   6.9588 15.51111789323961
STARLINK-1364,45589,53.0512,0.0006068,15.46902983,421.66364194715516,429.9208905046471,1 45589U 20025BL  26054.61469903  .00077319  00000+0  15045-2 0  9998,2 45589  53.0512 130.5511 0006068   1.8310 358.2718 15.46902983323513
STARLINK-1365,45590,53.0527,0.0001791,15.43666378,434.07919085335107,436.51976379952885,1 45590U 20025BM  26054.68991973  .00027289  00000+0  60307-3 0  9997,2 45590  53.0527 160.1427 0001791 343.8838  16.2110 15.43666378323124
STARLINK-1443,45660,53.0947,0.0001301,15.16807092,514.6009689358552,516.3946927188363,1 45660U 20035D   26054.91667824  .00047389  00000+0  23826-2 0  9994,2 45660  53.0947 128.2591 0001301 116.5387 133.6587 15.16807092  5833
STARLINK-1446,45663,53.0249,9.33e-05,15.42223734,438.91172529039795,440.1839052769301,1 45663U 20035G   26054.75153968  .00019194  00000+0  44841-3 0  9992,2 45663  53.0249  65.5502 0000933 202.8688 157.2275 15.42223734317521
STARLINK-1448,45665,53.0514,0.0006378,15.49328119,414.35534913192714,423.02538211952015,1 45665U 20035J   26054.66543361  .00076466  00000+0  13676-2 0  9990,2 45665  53.0514 120.0998 0006378  22.9352 337.1940 15.49328119316743
STARLINK-1451,45668,53.0511,9.45e-05,15.09289746,537.7154269218636,539.0226465628093,1 45668U 20035M   26054.64552125  .00022317  00000+0  13984-2 0  9997,2 45668  53.0511 129.4292 0000945 302.3083  57.7816 15.09289746316625
STARLINK-1452,45669,53.0332,0.0007921,15.42529919,433.2460261624374,444.04517315681824,1 45669U 20035N   26054.50201896  .00064230  00000+0  14535-2 0  9992,2 45669  53.0332  89.1973 0007921 357.5400   2.5564 15.42529919317176
STARLINK-1453,45670,53.0496,0.000847,15.49439584,412.6077541225768,424.12102747859353,1 45670U 20035P   26054.46337474  .00033966  00000+0  61251-3 0  9991,2 45670  53.0496  81.6706 0008470 347.9376  12.1428 15.49439584317165
